[{"OBJECT_NAME":"STARLINK-4252","OBJECT_ID":"2022-077Q","EPOCH":"2026-03-09T22:40:46.889760","MEAN_MOTION":15.05655199,"ECCENTRICITY":0.00015341,"INCLINATION":97.6027,"RA_OF_ASC_NODE":251.553,"ARG_OF_PERICENTER":69.2175,"MEAN_ANOMALY":290.9216,"EPHEMERIS_TYPE":0,"CLASSIFICATION_TYPE":"U","NORAD_CAT_ID":53057,"ELEMENT_SET_NO":999,"REV_AT_EPOCH":20102,"BSTAR":-2.0556285e-5,"MEAN_MOTION_DOT":-3.57e-6,"MEAN_MOTION_DDOT":0},{"OBJECT_NAME":"RAPIDEYE 4","OBJECT_ID":"2008-040E","EPOCH":"2026-03-09T22:51:05.848992","MEAN_MOTION":15.03765217,"ECCENTRICITY":0.00096509,"INCLINATION":97.4015,"RA_OF_ASC_NODE":97.7474,"ARG_OF_PERICENTER":35.5595,"MEAN_ANOMALY":324.6273,"EPHEMERIS_TYPE":0,"CLASSIFICATION_TYPE":"U","NORAD_CAT_ID":33316,"ELEMENT_SET_NO":999,"REV_AT_EPOCH":95086,"BSTAR":0.00022327721,"MEAN_MOTION_DOT":3.01e-5,"MEAN_MOTION_DDOT":0}]
